{
  "type": "FeatureCollection",
  "features": [
    {
      "type": "Feature",
      "properties": {
        "norad_id": 35837,
        "name": "COSMOS 2251 DEB",
        "group": "cosmos-2251-debris",
        "lat": -23.633466555696828,
        "lon": -177.58991232455517,
        "alt_km": 1235.6861022098055,
        "timestamp": "2025-12-23T11:34:48.557102+00:00",
        "meta_object_name": "COSMOS 2251 DEB",
        "meta_object_id": "1993-036ATK",
        "meta_epoch": "2025-12-20T04:59:29.154912",
        "meta_mean_motion": 13.63523619,
        "meta_eccentricity": 0.04220249,
        "meta_inclination": 73.7219,
        "meta_ra_of_asc_node": 195.2026,
        "meta_arg_of_pericenter": 114.812,
        "meta_mean_anomaly": 356.3531,
        "meta_ephemeris_type": 0,
        "meta_classification_type": "U",
        "meta_norad_cat_id": 35837,
        "meta_element_set_no": 999,
        "meta_rev_at_epoch": 58078,
        "meta_bstar": 0.0020383632,
        "meta_mean_motion_dot": 2.925e-05,
        "meta_mean_motion_ddot": 0,
        "tle_line1": "1 35837U 93036ATK 25354.20797633  .00002925  00000+0  20384-2 0  9999",
        "tle_line2": "2 35837  73.7219 195.2026 0422024 114.8120 356.3531 13.63523619580786"
      },
      "geometry": {
        "type": "Point",
        "coordinates": [
          -177.58991232455517,
          -23.633466555696828
        ]
      }
    },
    {
      "type": "Feature",
      "properties": {
        "norad_id": 35839,
        "name": "COSMOS 2251 DEB",
        "group": "cosmos-2251-debris",
        "lat": -57.54420362922105,
        "lon": 146.40196446744292,
        "alt_km": 394.4579631146262,
        "timestamp": "2025-12-23T11:34:48.557111+00:00",
        "meta_object_name": "COSMOS 2251 DEB",
        "meta_object_id": "1993-036ATM",
        "meta_epoch": "2025-12-22T13:00:04.596768",
        "meta_mean_motion": 15.59480867,
        "meta_eccentricity": 0.0007508,
        "meta_inclination": 74.2046,
        "meta_ra_of_asc_node": 302.0435,
        "meta_arg_of_pericenter": 136.7735,
        "meta_mean_anomaly": 223.4075,
        "meta_ephemeris_type": 0,
        "meta_classification_type": "U",
        "meta_norad_cat_id": 35839,
        "meta_element_set_no": 999,
        "meta_rev_at_epoch": 88720,
        "meta_bstar": 0.0064439,
        "meta_mean_motion_dot": 0.0054719,
        "meta_mean_motion_ddot": 0,
        "tle_line1": "1 35839U 93036ATM 25356.54171987  .00547190  00000+0  64439-2 0  9995",
        "tle_line2": "2 35839  74.2046 302.0435 0007508 136.7735 223.4075 15.59480867887203"
      },
      "geometry": {
        "type": "Point",
        "coordinates": [
          146.40196446744292,
          -57.54420362922105
        ]
      }
    },
    {
      "type": "Feature",
      "properties": {
        "norad_id": 35840,
        "name": "COSMOS 2251 DEB",
        "group": "cosmos-2251-debris",
        "lat": 39.045778857296895,
        "lon": -55.249095293503125,
        "alt_km": 775.9688966932345,
        "timestamp": "2025-12-23T11:34:48.557120+00:00",
        "meta_object_name": "COSMOS 2251 DEB",
        "meta_object_id": "1993-036ATN",
        "meta_epoch": "2025-12-12T04:26:56.474304",
        "meta_mean_motion": 14.37821687,
        "meta_eccentricity": 0.01162768,
        "meta_inclination": 73.9307,
        "meta_ra_of_asc_node": 159.2062,
        "meta_arg_of_pericenter": 61.7798,
        "meta_mean_anomaly": 299.5037,
        "meta_ephemeris_type": 0,
        "meta_classification_type": "U",
        "meta_norad_cat_id": 35840,
        "meta_element_set_no": 999,
        "meta_rev_at_epoch": 85283,
        "meta_bstar": 0.0026691111,
        "meta_mean_motion_dot": 8.683e-05,
        "meta_mean_motion_ddot": 0,
        "tle_line1": "1 35840U 93036ATN 25346.18537586  .00008683  00000+0  26691-2 0  9994",
        "tle_line2": "2 35840  73.9307 159.2062 0116276  61.7798 299.5037 14.37821687852835"
      },
      "geometry": {
        "type": "Point",
        "coordinates": [
          -55.249095293503125,
          39.045778857296895
        ]
      }
    },
    {
      "type": "Feature",
      "properties": {
        "norad_id": 35883,
        "name": "COSMOS 2251 DEB",
        "group": "cosmos-2251-debris",
        "lat": -73.9733383120853,
        "lon": -44.43803765184663,
        "alt_km": 732.3271189343714,
        "timestamp": "2025-12-23T11:34:48.557129+00:00",
        "meta_object_name": "COSMOS 2251 DEB",
        "meta_object_id": "1993-036ATW",
        "meta_epoch": "2025-12-16T04:41:35.789568",
        "meta_mean_motion": 14.50615193,
        "meta_eccentricity": 0.00835028,
        "meta_inclination": 74.0253,
        "meta_ra_of_asc_node": 63.5249,
        "meta_arg_of_pericenter": 192.1269,
        "meta_mean_anomaly": 197.0315,
        "meta_ephemeris_type": 0,
        "meta_classification_type": "U",
        "meta_norad_cat_id": 35883,
        "meta_element_set_no": 999,
        "meta_rev_at_epoch": 62436,
        "meta_bstar": 0.00022216854,
        "meta_mean_motion_dot": 8.82e-06,
        "meta_mean_motion_ddot": 0,
        "tle_line1": "1 35883U 93036ATW 25350.19555312  .00000882  00000+0  22217-3 0  9998",
        "tle_line2": "2 35883  74.0253  63.5249 0083502 192.1269 197.0315 14.50615193624369"
      },
      "geometry": {
        "type": "Point",
        "coordinates": [
          -44.43803765184663,
          -73.9733383120853
        ]
      }
    },
    {
      "type": "Feature",
      "properties": {
        "norad_id": 35884,
        "name": "COSMOS 2251 DEB",
        "group": "cosmos-2251-debris",
        "lat": 67.85078481125366,
        "lon": 91.70416285077242,
        "alt_km": 721.5118348800706,
        "timestamp": "2025-12-23T11:34:48.557138+00:00",
        "meta_object_name": "COSMOS 2251 DEB",
        "meta_object_id": "1993-036ATX",
        "meta_epoch": "2025-12-16T07:19:09.379488",
        "meta_mean_motion": 14.25680751,
        "meta_eccentricity": 0.01084022,
        "meta_inclination": 73.9902,
        "meta_ra_of_asc_node": 329.5521,
        "meta_arg_of_pericenter": 115.5254,
        "meta_mean_anomaly": 245.7151,
        "meta_ephemeris_type": 0,
        "meta_classification_type": "U",
        "meta_norad_cat_id": 35884,
        "meta_element_set_no": 999,
        "meta_rev_at_epoch": 22408,
        "meta_bstar": 0.00087030299,
        "meta_mean_motion_dot": 2.171e-05,
        "meta_mean_motion_ddot": 0,
        "tle_line1": "1 35884U 93036ATX 25350.30496967  .00002171  00000+0  87030-3 0  9999",
        "tle_line2": "2 35884  73.9902 329.5521 0108402 115.5254 245.7151 14.25680751224085"
      },
      "geometry": {
        "type": "Point",
        "coordinates": [
          91.70416285077242,
          67.85078481125366
        ]
      }
    },
    {
      "type": "Feature",
      "properties": {
        "norad_id": 35885,
        "name": "COSMOS 2251 DEB",
        "group": "cosmos-2251-debris",
        "lat": -6.687816482159898,
        "lon": -86.90875955233294,
        "alt_km": 753.1188004101259,
        "timestamp": "2025-12-23T11:34:48.557147+00:00",
        "meta_object_name": "COSMOS 2251 DEB",
        "meta_object_id": "1993-036ATY",
        "meta_epoch": "2025-12-23T01:35:28.135104",
        "meta_mean_motion": 14.37538947,
        "meta_eccentricity": 0.0023737,
        "meta_inclination": 74.0286,
        "meta_ra_of_asc_node": 275.7817,
        "meta_arg_of_pericenter": 354.0734,
        "meta_mean_anomaly": 6.0135,
        "meta_ephemeris_type": 0,
        "meta_classification_type": "U",
        "meta_norad_cat_id": 35885,
        "meta_element_set_no": 999,
        "meta_rev_at_epoch": 65164,
        "meta_bstar": 0.00028397,
        "meta_mean_motion_dot": 8.27e-06,
        "meta_mean_motion_ddot": 0,
        "tle_line1": "1 35885U 93036ATY 25357.06629786  .00000827  00000+0  28397-3 0  9994",
        "tle_line2": "2 35885  74.0286 275.7817 0023737 354.0734   6.0135 14.37538947651641"
      },
      "geometry": {
        "type": "Point",
        "coordinates": [
          -86.90875955233294,
          -6.687816482159898
        ]
      }
    },
    {
      "type": "Feature",
      "properties": {
        "norad_id": 35888,
        "name": "COSMOS 2251 DEB",
        "group": "cosmos-2251-debris",
        "lat": 29.03204689423798,
        "lon": -14.635394221488747,
        "alt_km": 687.7122657755326,
        "timestamp": "2025-12-23T11:34:48.557156+00:00",
        "meta_object_name": "COSMOS 2251 DEB",
        "meta_object_id": "1993-036AUB",
        "meta_epoch": "2025-12-19T16:53:26.890080",
        "meta_mean_motion": 14.58341015,
        "meta_eccentricity": 0.00479832,
        "meta_inclination": 74.0337,
        "meta_ra_of_asc_node": 343.4108,
        "meta_arg_of_pericenter": 113.3266,
        "meta_mean_anomaly": 247.2958,
        "meta_ephemeris_type": 0,
        "meta_classification_type": "U",
        "meta_norad_cat_id": 35888,
        "meta_element_set_no": 999,
        "meta_rev_at_epoch": 86375,
        "meta_bstar": 0.00026393359,
        "meta_mean_motion_dot": 1.211e-05,
        "meta_mean_motion_ddot": 0,
        "tle_line1": "1 35888U 93036AUB 25353.70378345  .00001211  00000+0  26393-3 0  9998",
        "tle_line2": "2 35888  74.0337 343.4108 0047983 113.3266 247.2958 14.58341015863752"
      },
      "geometry": {
        "type": "Point",
        "coordinates": [
          -14.635394221488747,
          29.03204689423798
        ]
      }
    }
  ]
}